SL-16 R/B               
1 28353U 04021B   25229.58994719  .00000329  00000+0  19603-3 0  9995
2 28353  71.0016 300.8020 0005839 329.0636  31.0142 14.14557624 93973
CZ-4B R/B               
1 28415U 04035C   25229.84760345  .00005884  00000+0  23502-3 0  9998
2 28415  97.3772 261.8399 0034008 332.3528  27.5900 15.24985673148800
CZ-2C R/B               
1 28480U 04046B   25229.78447338  .00000208  00000+0  92304-4 0  9991
2 28480  98.1911 152.4942 0140557  38.2756 322.8303 14.26857846 79427
ARIANE 5 R/B            
1 28499U 04049H   25229.93434152  .00000668  00000+0  81561-4 0  9994
2 28499  98.2421  26.1371 0083964 291.6483  67.5803 14.84616824115553
CZ-2D R/B               
1 28738U 05024B   25229.94877836  .00017047  00000+0  35189-3 0  9998
2 28738  97.3699 234.9342 0007792  67.4878 292.7195 15.45897169108172
ALOS (DAICHI)           
1 28931U 06002A   25229.89417566  .00001360  00000+0  24087-3 0  9990
2 28931  98.0884 182.3935 0001190 116.0604 244.0724 14.68902391 43937
H-2A R/B                
1 28932U 06002B   25229.92956951  .00006232  00000+0  35626-3 0  9995
2 28932  98.2179 355.5314 0057280 211.8729 147.9029 15.11695424 63605
RESURS-DK 1             
1 29228U 06021A   25229.90720287  .00001979  00000+0  12371-3 0  9999
2 29228  69.9341  43.5438 0001747  38.3399 321.7890 15.11247527 56723
CZ-4B R/B               
1 29507U 06046C   25229.86567441  .00003722  00000+0  20437-3 0  9992
2 29507  97.5918 270.3222 0033743 251.3968 108.3598 15.14287211 29171
CZ-2C R/B               
1 31114U 07010B   25229.90627381  .00000122  00000+0  74871-4 0  9999
2 31114  98.3857 348.5200 0059433 165.7185 194.5690 14.20147312950790
COSMO-SKYMED 1          
1 31598U 07023A   25229.94010588  .00002890  00000+0  27190-3 0  9993
2 31598  97.8899  54.6485 0001556  88.9005 271.2393 14.94673485984444
GENESIS 2               
1 31789U 07028A   25229.95170492  .00395804  76021-4  66174-3 0  9998
2 31789  64.4641 165.3620 0020567 286.0925  73.7974 16.02184761  3938
COSMOS 2428             
1 31792U 07029A   25229.92244304  .00000046  00000+0  50179-4 0  9993
2 31792  70.9422 271.0917 0004892 225.6342 134.4379 14.12902144935312
SL-16 R/B               
1 31793U 07029B   25229.82318767  .00000086  00000+0  69607-4 0  9998
2 31793  70.9712 240.9109 0002513 274.4908 258.7012 14.14788274936538
KORONAS-FOTON           
1 33504U 09003A   25229.80680250  .00005943  00000+0  15916-3 0  9991
2 33504  82.4331 126.9037 0012290 159.0331 201.1419 15.37715237914353
CZ-2C R/B               
1 37731U 11030B   25229.87316539  .00001179  00000+0  15809-3 0  9991
2 37731  97.8197 186.7595 0051951 294.3827  83.9142 14.80371955759934
H-2A R/B                
1 38341U 12025E   25229.82268464  .00001808  00000+0  17563-3 0  9990
2 38341  98.4393 176.2952 0044576 258.7843 100.8362 14.93345357717775
SHIJIAN-16 (SJ-16)      
1 39358U 13057A   25229.90458659  .00000916  00000+0  94147-4 0  9994
2 39358  74.9705 210.6140 0018297 249.3326 110.5900 14.91503877641183
SL-4 R/B                
1 39679U 14021B   25229.77908139  .00007881  00000+0  21372-3 0  9997
2 39679  51.6078 247.1218 0111203  82.7939 278.5668 15.32622370624931
ALOS-2                  
1 39766U 14029A   25229.87345398  .00001399  00000+0  19415-3 0  9998
2 39766  97.9225 326.3924 0001492  96.3339 263.8042 14.79483643606731
YAOGAN-29               
1 41038U 15069A   25229.94136492  .00000350  00000+0  50143-4 0  9999
2 41038  98.0335 252.6489 0000462   7.1008 353.0211 14.82698921525681
ASTRO-H (HITOMI)        
1 41337U 16012A   25229.33152677  .00002510  00000+0  15179-3 0  9995
2 41337  30.9988 233.6435 0009812  80.8100 279.3647 15.08343351521335
HXMT (HUIYAN)           
1 42758U 17034A   25229.91939321  .00003825  00000+0  21453-3 0  9993
2 42758  43.0146  66.9381 0033508  26.9409 333.3170 15.14382791451616
CZ-2C R/B               
1 43521U 18054D   25229.75098826  .00030683  00000+0  41618-3 0  9990
2 43521  35.1369 241.7065 0030156 116.1270 244.2565 15.56077674396736
SAOCOM 1A               
1 43641U 18076A   25229.94613485  .00000385  00000+0  54964-4 0  9997
2 43641  97.8901  56.0365 0001505  90.9895 269.1490 14.82156342371187
H-2A R/B                
1 43682U 18084L   25229.90862843  .00011270  00000+0  36094-3 0  9999
2 43682  98.8821  40.3231 0031030   7.1742 352.9933 15.32143824374485
SAOCOM 1B               
1 46265U 20059A   25229.84238279  .00000384  00000+0  54781-4 0  9995
2 46265  97.8906  55.0397 0001385  89.4858 270.6514 14.82148197268558
CSS (TIANHE)            
1 48274U 21035A   25229.79814402  .00020876  00000+0  27320-3 0  9990
2 48274  41.4661   7.3101 0005352 182.3082 177.7732 15.58099033245761
COSMOS 2550             
1 48865U 21056A   25229.93929966  .00000096  00000+0  87398-5 0  9992
2 48865  67.1412 297.3027 0008338 269.9425  90.0774 15.33820812232213
CZ-2C R/B               
1 52794U 22058K   25229.33212260  .00010054  00000+0  23111-3 0  9993
2 52794  50.1928 278.8899 0054657  67.4870 293.1868 15.41735305178483
GSLV R/B                
1 54149U 22138AN  25229.56622477  .00002447  00000+0  21975-3 0  9991
2 54149  87.3763 234.6951 0022836 166.1006 194.0858 14.95084424153410
XRISM                   
1 57800U 23137A   25229.92066710  .00004812  00000+0  29444-3 0  9997
2 57800  31.0011 158.7229 0007945 155.2404 204.8616 15.08594347106963
ACS3                    
1 59588U 24077B   25229.92576527  .00011020  00000+0  10492-1 0  9998
2 59588  97.4168 211.0399 0066165  21.9986 338.3988 13.79797366 66008
